{"fetched_at":"2026-07-10T07:59:03.597Z","source":"https://celestrak.org/NORAD/elements/gp.php?NAME=HAWK&FORMAT=JSON","constellation":"hawkeye-360","records":[{"OBJECT_NAME":"HAWK-A","OBJECT_ID":"2018-099H","EPOCH":"2026-07-08T22:32:11.256288","CLASSIFICATION_TYPE":"U","MEAN_MOTION":15.24910778,"ECCENTRICITY":0.00340713,"INCLINATION":97.3904,"RA_OF_ASC_NODE":241.893,"ARG_OF_PERICENTER":206.1617,"MEAN_ANOMALY":153.7901,"EPHEMERIS_TYPE":0,"NORAD_CAT_ID":43765,"ELEMENT_SET_NO":999,"REV_AT_EPOCH":41641,"BSTAR":0.00017107385,"MEAN_MOTION_DOT":0.00004252,"MEAN_MOTION_DDOT":0},{"OBJECT_NAME":"HAWK-B","OBJECT_ID":"2018-099AN","EPOCH":"2026-07-09T02:49:56.665344","CLASSIFICATION_TYPE":"U","MEAN_MOTION":15.23069318,"ECCENTRICITY":0.00308303,"INCLINATION":97.3952,"RA_OF_ASC_NODE":241.4385,"ARG_OF_PERICENTER":223.9144,"MEAN_ANOMALY":135.9642,"EPHEMERIS_TYPE":0,"NORAD_CAT_ID":43794,"ELEMENT_SET_NO":999,"REV_AT_EPOCH":41637,"BSTAR":0.00015491926,"MEAN_MOTION_DOT":0.00003624,"MEAN_MOTION_DDOT":0},{"OBJECT_NAME":"HAWK-C","OBJECT_ID":"2018-099AT","EPOCH":"2026-07-09T14:04:05.788704","CLASSIFICATION_TYPE":"U","MEAN_MOTION":15.28432689,"ECCENTRICITY":0.0039744,"INCLINATION":97.3883,"RA_OF_ASC_NODE":243.5549,"ARG_OF_PERICENTER":203.7695,"MEAN_ANOMALY":156.1711,"EPHEMERIS_TYPE":0,"NORAD_CAT_ID":43799,"ELEMENT_SET_NO":999,"REV_AT_EPOCH":41733,"BSTAR":0.00020631,"MEAN_MOTION_DOT":0.00005767,"MEAN_MOTION_DDOT":0},{"OBJECT_NAME":"HAWK-2C","OBJECT_ID":"2021-006CT","EPOCH":"2026-07-09T17:03:17.358048","CLASSIFICATION_TYPE":"U","MEAN_MOTION":15.34943582,"ECCENTRICITY":0.0008534,"INCLINATION":97.2272,"RA_OF_ASC_NODE":234.5729,"ARG_OF_PERICENTER":116.5686,"MEAN_ANOMALY":243.6433,"EPHEMERIS_TYPE":0,"NORAD_CAT_ID":47502,"ELEMENT_SET_NO":999,"REV_AT_EPOCH":30295,"BSTAR":0.00014053,"MEAN_MOTION_DOT":0.00004689,"MEAN_MOTION_DDOT":0},{"OBJECT_NAME":"HAWK-2A","OBJECT_ID":"2021-006CW","EPOCH":"2026-07-09T17:06:34.147008","CLASSIFICATION_TYPE":"U","MEAN_MOTION":15.34958612,"ECCENTRICITY":0.0008025,"INCLINATION":97.2314,"RA_OF_ASC_NODE":235.266,"ARG_OF_PERICENTER":119.7242,"MEAN_ANOMALY":240.4801,"EPHEMERIS_TYPE":0,"NORAD_CAT_ID":47505,"ELEMENT_SET_NO":999,"REV_AT_EPOCH":30295,"BSTAR":0.00014384,"MEAN_MOTION_DOT":0.00004803,"MEAN_MOTION_DDOT":0},{"OBJECT_NAME":"HAWK-2B","OBJECT_ID":"2021-006CZ","EPOCH":"2026-07-09T01:19:13.774656","CLASSIFICATION_TYPE":"U","MEAN_MOTION":15.35076738,"ECCENTRICITY":0.0008602,"INCLINATION":97.2184,"RA_OF_ASC_NODE":232.9178,"ARG_OF_PERICENTER":120.145,"MEAN_ANOMALY":240.0648,"EPHEMERIS_TYPE":0,"NORAD_CAT_ID":47508,"ELEMENT_SET_NO":999,"REV_AT_EPOCH":30285,"BSTAR":0.00014878805,"MEAN_MOTION_DOT":0.00004991,"MEAN_MOTION_DDOT":0},{"OBJECT_NAME":"HAWK-3B","OBJECT_ID":"2021-059BE","EPOCH":"2026-07-08T23:42:41.292288","CLASSIFICATION_TYPE":"U","MEAN_MOTION":15.71448162,"ECCENTRICITY":0.00039572,"INCLINATION":97.6654,"RA_OF_ASC_NODE":28.7876,"ARG_OF_PERICENTER":222.4418,"MEAN_ANOMALY":137.6539,"EPHEMERIS_TYPE":0,"NORAD_CAT_ID":48931,"ELEMENT_SET_NO":999,"REV_AT_EPOCH":28127,"BSTAR":0.00027623515,"MEAN_MOTION_DOT":0.00035169,"MEAN_MOTION_DDOT":0},{"OBJECT_NAME":"HAWK-3C","OBJECT_ID":"2021-059BX","EPOCH":"2026-07-08T13:00:22.427136","CLASSIFICATION_TYPE":"U","MEAN_MOTION":15.71407356,"ECCENTRICITY":0.0004226,"INCLINATION":97.6771,"RA_OF_ASC_NODE":34.0207,"ARG_OF_PERICENTER":223.2923,"MEAN_ANOMALY":136.8007,"EPHEMERIS_TYPE":0,"NORAD_CAT_ID":48948,"ELEMENT_SET_NO":999,"REV_AT_EPOCH":28120,"BSTAR":0.00030650578,"MEAN_MOTION_DOT":0.00038991,"MEAN_MOTION_DDOT":0},{"OBJECT_NAME":"HAWK-3A","OBJECT_ID":"2021-059CG","EPOCH":"2026-07-08T13:00:12.644064","CLASSIFICATION_TYPE":"U","MEAN_MOTION":15.71409877,"ECCENTRICITY":0.00040692,"INCLINATION":97.6713,"RA_OF_ASC_NODE":31.2077,"ARG_OF_PERICENTER":227.6759,"MEAN_ANOMALY":132.4159,"EPHEMERIS_TYPE":0,"NORAD_CAT_ID":48957,"ELEMENT_SET_NO":999,"REV_AT_EPOCH":28120,"BSTAR":0.00032418834,"MEAN_MOTION_DOT":0.00041263,"MEAN_MOTION_DDOT":0},{"OBJECT_NAME":"HAWK-5C","OBJECT_ID":"2022-057Y","EPOCH":"2026-07-09T17:49:11.763264","CLASSIFICATION_TYPE":"U","MEAN_MOTION":15.52195639,"ECCENTRICITY":0.0003311,"INCLINATION":97.661,"RA_OF_ASC_NODE":351.8809,"ARG_OF_PERICENTER":7.972,"MEAN_ANOMALY":352.1583,"EPHEMERIS_TYPE":0,"NORAD_CAT_ID":52754,"ELEMENT_SET_NO":999,"REV_AT_EPOCH":22984,"BSTAR":0.00023553,"MEAN_MOTION_DOT":0.00014173,"MEAN_MOTION_DDOT":0},{"OBJECT_NAME":"HAWK-5B","OBJECT_ID":"2022-057AA","EPOCH":"2026-07-09T17:48:55.177056","CLASSIFICATION_TYPE":"U","MEAN_MOTION":15.52193096,"ECCENTRICITY":0.0003978,"INCLINATION":97.6627,"RA_OF_ASC_NODE":350.2329,"ARG_OF_PERICENTER":354.7757,"MEAN_ANOMALY":5.3452,"EPHEMERIS_TYPE":0,"NORAD_CAT_ID":52756,"ELEMENT_SET_NO":999,"REV_AT_EPOCH":22984,"BSTAR":0.00022497,"MEAN_MOTION_DOT":0.00013532,"MEAN_MOTION_DDOT":0},{"OBJECT_NAME":"HAWK-5A","OBJECT_ID":"2022-057AB","EPOCH":"2026-07-09T19:21:28.301184","CLASSIFICATION_TYPE":"U","MEAN_MOTION":15.52195712,"ECCENTRICITY":0.0003885,"INCLINATION":97.6619,"RA_OF_ASC_NODE":351.132,"ARG_OF_PERICENTER":359.6298,"MEAN_ANOMALY":0.4951,"EPHEMERIS_TYPE":0,"NORAD_CAT_ID":52757,"ELEMENT_SET_NO":999,"REV_AT_EPOCH":22985,"BSTAR":0.00023078,"MEAN_MOTION_DOT":0.00013886,"MEAN_MOTION_DDOT":0},{"OBJECT_NAME":"HAWK-6B","OBJECT_ID":"2023-011A","EPOCH":"2026-07-09T13:02:06.421632","CLASSIFICATION_TYPE":"U","MEAN_MOTION":15.23122243,"ECCENTRICITY":0.0003304,"INCLINATION":40.4968,"RA_OF_ASC_NODE":221.6591,"ARG_OF_PERICENTER":209.9422,"MEAN_ANOMALY":150.1199,"EPHEMERIS_TYPE":0,"NORAD_CAT_ID":55324,"ELEMENT_SET_NO":999,"REV_AT_EPOCH":19125,"BSTAR":0.00012815,"MEAN_MOTION_DOT":0.00002893,"MEAN_MOTION_DDOT":0},{"OBJECT_NAME":"HAWK-6C","OBJECT_ID":"2023-011C","EPOCH":"2026-07-09T13:01:12.590112","CLASSIFICATION_TYPE":"U","MEAN_MOTION":15.23123597,"ECCENTRICITY":0.0003774,"INCLINATION":40.4958,"RA_OF_ASC_NODE":218.4978,"ARG_OF_PERICENTER":199.1925,"MEAN_ANOMALY":160.8742,"EPHEMERIS_TYPE":0,"NORAD_CAT_ID":55326,"ELEMENT_SET_NO":999,"REV_AT_EPOCH":19126,"BSTAR":0.00014027,"MEAN_MOTION_DOT":0.00003186,"MEAN_MOTION_DDOT":0},{"OBJECT_NAME":"HAWK-6A","OBJECT_ID":"2023-011D","EPOCH":"2026-07-09T13:01:15.483648","CLASSIFICATION_TYPE":"U","MEAN_MOTION":15.23123028,"ECCENTRICITY":0.0003302,"INCLINATION":40.4966,"RA_OF_ASC_NODE":220.1247,"ARG_OF_PERICENTER":196.9999,"MEAN_ANOMALY":163.07,"EPHEMERIS_TYPE":0,"NORAD_CAT_ID":55327,"ELEMENT_SET_NO":999,"REV_AT_EPOCH":19126,"BSTAR":0.00012666,"MEAN_MOTION_DOT":0.00002857,"MEAN_MOTION_DDOT":0},{"OBJECT_NAME":"HAWK-7A","OBJECT_ID":"2023-054P","EPOCH":"2026-07-09T17:04:11.232768","CLASSIFICATION_TYPE":"U","MEAN_MOTION":15.27595507,"ECCENTRICITY":0.0002032,"INCLINATION":97.2676,"RA_OF_ASC_NODE":77.4761,"ARG_OF_PERICENTER":358.9659,"MEAN_ANOMALY":1.1576,"EPHEMERIS_TYPE":0,"NORAD_CAT_ID":56191,"ELEMENT_SET_NO":999,"REV_AT_EPOCH":18046,"BSTAR":0.00014579,"MEAN_MOTION_DOT":0.00003861,"MEAN_MOTION_DDOT":0}]}
